0 ATLAS 55E R/B
1 16137U 85093B   13280.45858307 -.00000035  00000-0  00000+0 0  3113
2 16137 063.7797 051.4617 5677057 004.9812 014.8950 03.91034448399851
0 ATLAS 55E R/B
1 16137U 85093B   13285.30910524 -.00000046  00000-0  00000+0 0  3125
2 16137 063.7806 049.9602 5676312 004.9466 003.0791 03.91034605400048
0 ATLAS 55E R/B
1 16137U 85093B   13291.45543933 -.00000096  00000-0  00000+0 0  3130
2 16137 063.7828 048.0589 5675454 004.8990 015.4109 03.91034855400286
